[{"OBJECT_NAME":"YAOGAN-27","OBJECT_ID":"2015-040A","EPOCH":"2026-03-09T23:21:37.385568","MEAN_MOTION":13.16063344,"ECCENTRICITY":0.00088956,"INCLINATION":100.1112,"RA_OF_ASC_NODE":59.6878,"ARG_OF_PERICENTER":83.8271,"MEAN_ANOMALY":276.3856,"EPHEMERIS_TYPE":0,"CLASSIFICATION_TYPE":"U","NORAD_CAT_ID":40878,"ELEMENT_SET_NO":999,"REV_AT_EPOCH":50461,"BSTAR":-0.0012687486,"MEAN_MOTION_DOT":-5.24e-6,"MEAN_MOTION_DDOT":0},{"OBJECT_NAME":"ONEWEB-0184","OBJECT_ID":"2021-031B","EPOCH":"2026-03-09T17:48:46.257984","MEAN_MOTION":13.14502969,"ECCENTRICITY":0.00022063,"INCLINATION":87.9,"RA_OF_ASC_NODE":309.5336,"ARG_OF_PERICENTER":100.3297,"MEAN_ANOMALY":259.8082,"EPHEMERIS_TYPE":0,"CLASSIFICATION_TYPE":"U","NORAD_CAT_ID":48211,"ELEMENT_SET_NO":999,"REV_AT_EPOCH":23522,"BSTAR":0.000421233,"MEAN_MOTION_DOT":1.69e-6,"MEAN_MOTION_DDOT":0}]
